NORAD_CAT_ID,OBJECT_NAME,OBJECT_TYPE,EPOCH,MEAN_MOTION,ECCENTRICITY,INCLINATION,RA_OF_ASC_NODE,ARG_OF_PERICENTER,MEAN_ANOMALY,BSTAR,MEAN_MOTION_DOT,MEAN_MOTION_DDOT,TLE_LINE0,TLE_LINE1,TLE_LINE2,SEMIMAJOR_AXIS,PERIOD,APOGEE,PERIGEE,DECAYED
51815.0,STARLINK-3604,PAYLOAD,2024-04-17 13:12:10,15.08852198,0.0001615,53.2156,191.7662,73.3491,286.7678,0.00018651,2.682e-05,0.0,0 STARLINK-3604,1 51815U 22017AZ  24108.55012616  .00002682  00000-0  18651-3 0  9995,2 51815  53.2156 191.7662 0001615  73.3491 286.7678 15.08852198119749,6917.843,95.437,540.825,538.591,0.0
51815.0,STARLINK-3604,PAYLOAD,2024-04-18 11:27:36,15.08823293,0.0001528,53.2163,187.5996,87.3957,272.7211,-0.00023687,-4.054e-05,0.0,0 STARLINK-3604,1 51815U 22017AZ  24109.47750385 -.00004054  00000-0 -23687-3 0  9991,2 51815  53.2163 187.5996 0001528  87.3957 272.7211 15.08823293120008,6917.931,95.439,540.854,538.739,0.0
51815.0,STARLINK-3604,PAYLOAD,2024-04-19 04:56:51,15.08832864,0.0001458,53.216,184.3271,118.2326,241.8813,0.00010532,1.388e-05,0.0,0 STARLINK-3604,1 51815U 22017AZ  24110.20614713  .00001388  00000-0  10532-3 0  9998,2 51815  53.2160 184.3271 0001458 118.2326 241.8813 15.08832864120113,6917.902,95.438,540.776,538.759,0.0
51815.0,STARLINK-3604,PAYLOAD,2024-04-19 09:43:00,15.0884243,0.0001554,53.2165,183.4438,73.86,286.2563,0.00036414,5.512e-05,0.0,0 STARLINK-3604,1 51815U 22017AZ  24110.40486730  .00005512  00000-0  36414-3 0  9996,2 51815  53.2165 183.4438 0001554  73.8600 286.2563 15.08842430120026,6917.873,95.437,540.813,538.663,0.0
51815.0,STARLINK-3604,PAYLOAD,2024-04-20 11:09:09,15.08823755,0.0001454,53.2176,178.6862,87.5916,272.5243,-0.0015125,-0.00024268,0.0,0 STARLINK-3604,1 51815U 22017AZ  24111.46469789 -.00024268  00000-0 -15125-2 0  9994,2 51815  53.2176 178.6862 0001454  87.5916 272.5243 15.08823755120309,6917.93,95.439,540.801,538.789,0.0
51815.0,STARLINK-3604,PAYLOAD,2024-04-20 14:19:56,15.08823939,0.0001423,53.217,178.0904,74.356,285.7589,-0.0013422,-0.00021576,0.0,0 STARLINK-3604,1 51815U 22017AZ  24111.59717811 -.00021576  00000-0 -13422-2 0  9997,2 51815  53.2170 178.0904 0001423  74.3560 285.7589 15.08823939120201,6917.929,95.439,540.779,538.81,0.0
51815.0,STARLINK-3604,PAYLOAD,2024-04-21 04:38:25,15.08807209,0.0001437,53.2174,175.4127,81.5073,278.6082,-0.00046696,-7.705e-05,0.0,0 STARLINK-3604,1 51815U 22017AZ  24112.19335194 -.00007705  00000-0 -46696-3 0  9992,2 51815  53.2174 175.4127 0001437  81.5073 278.6082 15.08807209120411,6917.981,95.44,540.84,538.852,0.0
51815.0,STARLINK-3604,PAYLOAD,2024-04-21 14:10:45,15.08826653,0.0001547,53.2171,173.6271,83.7122,276.4047,0.0017498,0.0002766,0.0,0 STARLINK-3604,1 51815U 22017AZ  24112.59080035  .00027660  00000-0  17498-2 0  9994,2 51815  53.2171 173.6271 0001547  83.7122 276.4047 15.08826653120353,6917.921,95.438,540.856,538.716,0.0
51815.0,STARLINK-3604,PAYLOAD,2024-04-22 04:29:12,15.0887584,0.000149,53.2171,170.9506,82.3301,277.786,0.0020431,0.0003241,0.0,0 STARLINK-3604,1 51815U 22017AZ  24113.18695272  .00032410  00000-0  20431-2 0  9995,2 51815  53.2171 170.9506 0001490  82.3301 277.7860 15.08875840120567,6917.771,95.435,540.667,538.605,0.0
51815.0,STARLINK-3604,PAYLOAD,2024-04-22 10:50:44,15.08895804,0.0001508,53.2169,169.7609,81.5677,278.5486,0.0021444,0.00034058,0.0,0 STARLINK-3604,1 51815U 22017AZ  24113.45190415  .00034058  00000-0  21444-2 0  9999,2 51815  53.2169 169.7609 0001508  81.5677 278.5486 15.08895804120487,6917.71,95.434,540.618,538.532,0.0
51815.0,STARLINK-3604,PAYLOAD,2024-04-23 09:06:08,15.08852421,0.0002063,53.2161,165.5986,167.051,193.0535,0.00147,0.00023193,0.0,0 STARLINK-3604,1 51815U 22017AZ  24114.37926154  .00023193  00000-0  14700-2 0  9993,2 51815  53.2161 165.5986 0002063 167.0510 193.0535 15.08852421120747,6917.842,95.437,541.135,538.28,0.0
51815.0,STARLINK-3604,PAYLOAD,2024-04-24 12:07:42,15.0884938,0.0001653,53.2161,160.5379,93.9013,266.2169,0.00058249,8.997e-05,0.0,0 STARLINK-3604,1 51815U 22017AZ  24115.50534762  .00008997  00000-0  58249-3 0  9991,2 51815  53.2161 160.5379 0001653  93.9013 266.2169 15.08849380120912,6917.852,95.437,540.86,538.573,0.0
51815.0,STARLINK-3604,PAYLOAD,2024-04-25 10:23:06,15.08843974,0.0001657,53.2159,156.3812,82.813,277.305,0.00026027,3.857e-05,0.0,0 STARLINK-3604,1 51815U 22017AZ  24116.43271072  .00003857  00000-0  26027-3 0  9995,2 51815  53.2159 156.3812 0001657  82.8130 277.3050 15.08843974121056,6917.868,95.437,540.88,538.587,0.0
51815.0,STARLINK-3604,PAYLOAD,2024-04-26 08:38:29,15.08855992,0.0001538,53.2154,152.2129,107.5733,252.5427,0.00050018,7.685e-05,0.0,0 STARLINK-3604,1 51815U 22017AZ  24117.36006267  .00007685  00000-0  50018-3 0  9990,2 51815  53.2154 152.2129 0001538 107.5733 252.5427 15.08855992121077,6917.832,95.437,540.76,538.633,0.0
51815.0,STARLINK-3604,PAYLOAD,2024-04-26 19:46:10,15.08862684,0.0001913,53.2168,150.1324,104.7414,255.379,0.00058257,9.001e-05,0.0,0 STARLINK-3604,1 51815U 22017AZ  24117.82373785  .00009001  00000-0  58257-3 0  9990,2 51815  53.2168 150.1324 0001913 104.7414 255.3790 15.08862684121269,6917.811,95.436,540.999,538.353,0.0
51815.0,STARLINK-3604,PAYLOAD,2024-04-27 08:29:15,15.08844647,0.0001398,53.2159,147.7554,93.6558,266.4594,-0.00010967,-2.033e-05,0.0,0 STARLINK-3604,1 51815U 22017AZ  24118.35365667 -.00002033  00000-0 -10967-3 0  9995,2 51815  53.2159 147.7554 0001398  93.6558 266.4594 15.08844647121341,6917.866,95.437,540.698,538.764,0.0
51815.0,STARLINK-3604,PAYLOAD,2024-04-28 08:20:04,15.08826188,0.0001277,53.2146,143.298,78.2205,281.893,-0.00015346,-2.728e-05,0.0,0 STARLINK-3604,1 51815U 22017AZ  24119.34727214 -.00002728  00000-0 -15346-3 0  9992,2 51815  53.2146 143.2980 0001277  78.2205 281.8930 15.08826188121496,6917.923,95.438,540.671,538.904,0.0
51815.0,STARLINK-3604,PAYLOAD,2024-04-29 08:10:52,15.08827643,0.0001224,53.2152,138.8372,77.0592,283.0537,0.00019962,2.889e-05,0.0,0 STARLINK-3604,1 51815U 22017AZ  24120.34088348  .00002889  00000-0  19962-3 0  9996,2 51815  53.2152 138.8372 0001224  77.0592 283.0537 15.08827643121524,6917.918,95.438,540.63,538.936,0.0
51815.0,STARLINK-3604,PAYLOAD,2024-04-29 17:43:11,15.08835516,0.0001255,53.2151,137.0525,78.8952,281.2181,0.00027901,4.155e-05,0.0,0 STARLINK-3604,1 51815U 22017AZ  24120.73832311  .00004155  00000-0  27901-3 0  9996,2 51815  53.2151 137.0525 0001255  78.8952 281.2181 15.08835516121700,6917.894,95.438,540.627,538.891,0.0
51815.0,STARLINK-3604,PAYLOAD,2024-04-30 08:01:39,15.08845805,0.000131,53.2157,134.3757,77.3128,282.801,0.00040119,6.104e-05,0.0,0 STARLINK-3604,1 51815U 22017AZ  24121.33448190  .00006104  00000-0  40119-3 0  9993,2 51815  53.2157 134.3757 0001310  77.3128 282.8010 15.08845805121670,6917.863,95.437,540.634,538.821,0.0
51815.0,STARLINK-3604,PAYLOAD,2024-04-30 17:33:57,15.08850228,0.0001304,53.2156,132.5916,78.1713,281.9425,0.00036763,5.569e-05,0.0,0 STARLINK-3604,1 51815U 22017AZ  24121.73191960  .00005569  00000-0  36763-3 0  9991,2 51815  53.2156 132.5916 0001304  78.1713 281.9425 15.08850228121730,6917.849,95.437,540.616,538.812,0.0
51815.0,STARLINK-3604,PAYLOAD,2024-05-01 04:41:39,15.08856052,0.0001309,53.2155,130.5101,78.6907,281.4232,0.00036383,5.51e-05,0.0,0 STARLINK-3604,1 51815U 22017AZ  24122.19559514  .00005510  00000-0  36383-3 0  9999,2 51815  53.2155 130.5101 0001309  78.6907 281.4232 15.08856052121921,6917.831,95.437,540.602,538.791,0.0
51815.0,STARLINK-3604,PAYLOAD,2024-05-01 09:27:48,15.08859287,0.0001308,53.2155,129.618,78.7648,281.3491,0.00039539,6.014e-05,0.0,0 STARLINK-3604,1 51815U 22017AZ  24122.39431260  .00006014  00000-0  39539-3 0  9994,2 51815  53.2155 129.6180 0001308  78.7648 281.3491 15.08859287121838,6917.821,95.436,540.591,538.782,0.0
51815.0,STARLINK-3604,PAYLOAD,2024-05-01 17:24:44,15.0884945,0.0001329,53.2155,128.1316,85.1583,274.9561,9.0721e-05,1.157e-05,0.0,0 STARLINK-3604,1 51815U 22017AZ  24122.72551269  .00001157  00000-0  90721-4 0  9997,2 51815  53.2155 128.1316 0001329  85.1583 274.9561 15.08849450122003,6917.852,95.437,540.636,538.797,0.0
51815.0,STARLINK-3604,PAYLOAD,2024-05-02 09:18:35,15.08846339,0.0001356,53.2151,125.1573,83.1095,277.0051,3.3189e-05,2.4e-06,0.0,0 STARLINK-3604,1 51815U 22017AZ  24123.38791253  .00000240  00000-0  33189-4 0  9996,2 51815  53.2151 125.1573 0001356  83.1095 277.0051 15.08846339121984,6917.861,95.437,540.664,538.788,0.0
51815.0,STARLINK-3604,PAYLOAD,2024-05-02 17:15:31,15.08843244,0.0001367,53.215,123.6707,83.7355,276.3793,1.1762e-06,-2.69e-06,0.0,0 STARLINK-3604,1 51815U 22017AZ  24123.71911332 -.00000269  00000-0  11762-5 0  9991,2 51815  53.2150 123.6707 0001367  83.7355 276.3793 15.08843244122159,6917.87,95.437,540.681,538.79,0.0
51815.0,STARLINK-3604,PAYLOAD,2024-05-03 09:09:22,15.08847334,0.0001424,53.2151,120.6966,84.9522,275.1633,4.243e-05,3.88e-06,0.0,0 STARLINK-3604,1 51815U 22017AZ  24124.38151155  .00000388  00000-0  42430-4 0  9990,2 51815  53.2151 120.6966 0001424  84.9522 275.1633 15.08847334122139,6917.858,95.437,540.708,538.738,0.0
51815.0,STARLINK-3604,PAYLOAD,2024-05-03 17:06:18,15.0884003,0.0001435,53.2149,119.21,83.7395,276.376,2.289e-05,7.6e-07,0.0,0 STARLINK-3604,1 51815U 22017AZ  24124.71271587  .00000076  00000-0  22890-4 0  9991,2 51815  53.2149 119.2100 0001435  83.7395 276.3760 15.08840030122182,6917.88,95.438,540.738,538.753,0.0
51815.0,STARLINK-3604,PAYLOAD,2024-05-04 04:14:01,15.08833262,0.0001456,53.2152,117.1286,84.5909,275.5249,-1.2461e-05,-4.86e-06,0.0,0 STARLINK-3604,1 51815U 22017AZ  24125.17640228 -.00000486  00000-0 -12461-4 0  9994,2 51815  53.2152 117.1286 0001456  84.5909 275.5249 15.08833262122374,6917.901,95.438,540.773,538.759,0.0
51815.0,STARLINK-3604,PAYLOAD,2024-05-05 04:04:47,15.08843175,0.0001445,53.2163,112.6678,85.7754,274.3403,8.792e-05,1.112e-05,0.0,0 STARLINK-3604,1 51815U 22017AZ  24126.16999490  .00001112  00000-0  87920-4 0  9999,2 51815  53.2163 112.6678 0001445  85.7754 274.3403 15.08843175122520,6917.871,95.437,540.735,538.736,0.0
